<?xml version="1.0" encoding="utf-8"?>
<TrainingCenterDatabase xmlns="http://www.garmin.com/xmlschemas/TrainingCenterDatabase/v2" xmlns:ns3="http://www.garmin.com/xmlschemas/ActivityExtension/v2" xsi:schemaLocation="http://www.garmin.com/xmlschemas/TrainingCenterDatabase/v2 http://www.garmin.com/xmlschemas/TrainingCenterDatabasev2.xsd" xmlns:nax="https://www.nike.com/xmlschemas/NikeActivityExtension/v1" xmlns:xsi="http://www.w3.org/2001/XMLSchema-instance" xmlns:ns5="http://www.garmin.com/xmlschemas/ActivityGoals/v1" xmlns:ns2="http://www.garmin.com/xmlschemas/UserProfile/v2">
      <Activities>
      <Activity Sport="Running">
      <Id>
      2022-11-16T23:31:45.941Z
    </Id><Lap StartTime="2022-11-16T23:31:45.941Z">
      <TotalTimeSeconds>
      36.458
    </TotalTimeSeconds><DistanceMeters>
      69.19955003261565
    </DistanceMeters><MaximumSpeed>
      2.609453293523387
    </MaximumSpeed><Calories>
      2
    </Calories><AverageHeartRateBpm>
      <Value>
      156
    </Value>
    </AverageHeartRateBpm><MaximumHeartRateBpm>
      <Value>
      159
    </Value>
    </MaximumHeartRateBpm><Intensity>
      Active
    </Intensity><Cadence>
      142
    </Cadence><TriggerMethod>
      Manual
    </TriggerMethod><Track>
      <Trackpoint>
      <Time>
      2022-11-16T23:31:45.941Z
    </Time><DistanceMeters>
      5.402660763356835
    </DistanceMeters><Cadence>
      96.60022974014282
    </Cadence><SensorState>
      Present
    </SensorState><Extensions>
      <TPX xmlns="http://www.garmin.com/xmlschemas/ActivityExtension/v2">
      <nax:Nax>
      <nax:NikeFuel>
      2.1792321319028405
    </nax:NikeFuel>
    </nax:Nax>
    </TPX>
    </Extensions>
    </Trackpoint>
<Trackpoint>
      <Time>
      2022-11-16T23:31:46.848Z
    </Time><SensorState>
      Present
    </SensorState>
    </Trackpoint>
<Trackpoint>
      <Time>
      2022-11-16T23:31:49.412Z
    </Time><SensorState>
      Present
    </SensorState><Extensions>
      <TPX xmlns="http://www.garmin.com/xmlschemas/ActivityExtension/v2">
      <ns3:Speed>
      1.0872880644426957
    </ns3:Speed><nax:Nax>
      <nax:Pace>
      15.328657797057119
    </nax:Pace>
    </nax:Nax>
    </TPX>
    </Extensions>
    </Trackpoint>
<Trackpoint>
      <Time>
      2022-11-16T23:31:49.413Z
    </Time><DistanceMeters>
      6.442171069793403
    </DistanceMeters><Cadence>
      96.60022974014282
    </Cadence><SensorState>
      Present
    </SensorState>
    </Trackpoint>
<Trackpoint>
      <Time>
      2022-11-16T23:31:50.000Z
    </Time><Position>
      <LatitudeDegrees>
      47.430056511900474
    </LatitudeDegrees><LongitudeDegrees>
      -122.29012423514348
    </LongitudeDegrees>
    </Position><AltitudeMeters>
      114.19894666969776
    </AltitudeMeters><SensorState>
      Present
    </SensorState>
    </Trackpoint>
<Trackpoint>
      <Time>
      2022-11-16T23:31:51.976Z
    </Time><SensorState>
      Present
    </SensorState><Extensions>
      <TPX xmlns="http://www.garmin.com/xmlschemas/ActivityExtension/v2">
      <ns3:Speed>
      0.810834706282712
    </ns3:Speed><nax:Nax>
      <nax:Pace>
      20.554949778944877
    </nax:Pace>
    </nax:Nax>
    </TPX>
    </Extensions>
    </Trackpoint>
<Trackpoint>
      <Time>
      2022-11-16T23:31:51.977Z
    </Time><DistanceMeters>
      4.758262638933957
    </DistanceMeters><Cadence>
      166.37208938598633
    </Cadence><SensorState>
      Present
    </SensorState>
    </Trackpoint>
<Trackpoint>
      <Time>
      2022-11-16T23:31:51.978Z
    </Time><SensorState>
      Present
    </SensorState>
    </Trackpoint>
<Trackpoint>
      <Time>
      2022-11-16T23:31:54.542Z
    </Time><SensorState>
      Present
    </SensorState><Extensions>
      <TPX xmlns="http://www.garmin.com/xmlschemas/ActivityExtension/v2">
      <ns3:Speed>
      2.568488145248092
    </ns3:Speed><nax:Nax>
      <nax:Pace>
      6.488901534352544
    </nax:Pace>
    </nax:Nax>
    </TPX>
    </Extensions>
    </Trackpoint>
<Trackpoint>
      <Time>
      2022-11-16T23:31:54.543Z
    </Time><DistanceMeters>
      5.287322772201151
    </DistanceMeters><Cadence>
      167.03311443328857
    </Cadence><SensorState>
      Present
    </SensorState>
    </Trackpoint>
<Trackpoint>
      <Time>
      2022-11-16T23:31:55.000Z
    </Time><SensorState>
      Present
    </SensorState><Extensions>
      <TPX xmlns="http://www.garmin.com/xmlschemas/ActivityExtension/v2">
      <nax:Nax>
      <nax:NikeFuel>
      6.4253196051091646
    </nax:NikeFuel>
    </nax:Nax>
    </TPX>
    </Extensions>
    </Trackpoint>
<Trackpoint>
      <Time>
      2022-11-16T23:31:55.999Z
    </Time><Position>
      <LatitudeDegrees>
      47.430162890984846
    </LatitudeDegrees><LongitudeDegrees>
      -122.29013293403582
    </LongitudeDegrees>
    </Position><AltitudeMeters>
      114.43541539274156
    </AltitudeMeters><SensorState>
      Present
    </SensorState>
    </Trackpoint>
<Trackpoint>
      <Time>
      2022-11-16T23:31:57.106Z
    </Time><DistanceMeters>
      6.5233864788897336
    </DistanceMeters><SensorState>
      Present
    </SensorState><Extensions>
      <TPX xmlns="http://www.garmin.com/xmlschemas/ActivityExtension/v2">
      <ns3:Speed>
      2.609453293523387
    </ns3:Speed><nax:Nax>
      <nax:Pace>
      6.387033907843077
    </nax:Pace>
    </nax:Nax>
    </TPX>
    </Extensions>
    </Trackpoint>
<Trackpoint>
      <Time>
      2022-11-16T23:31:57.107Z
    </Time><Cadence>
      166.79203033447266
    </Cadence><SensorState>
      Present
    </SensorState>
    </Trackpoint>
<Trackpoint>
      <Time>
      2022-11-16T23:31:59.670Z
    </Time><SensorState>
      Present
    </SensorState><Extensions>
      <TPX xmlns="http://www.garmin.com/xmlschemas/ActivityExtension/v2">
      <ns3:Speed>
      2.5766868051534155
    </ns3:Speed><nax:Nax>
      <nax:Pace>
      6.4682547499886525
    </nax:Pace>
    </nax:Nax>
    </TPX>
    </Extensions>
    </Trackpoint>
<Trackpoint>
      <Time>
      2022-11-16T23:31:59.671Z
    </Time><DistanceMeters>
      6.423704236280173
    </DistanceMeters><Cadence>
      166.7989683151245
    </Cadence><SensorState>
      Present
    </SensorState>
    </Trackpoint>
<Trackpoint>
      <Time>
      2022-11-16T23:31:59.672Z
    </Time><SensorState>
      Present
    </SensorState>
    </Trackpoint>
<Trackpoint>
      <Time>
      2022-11-16T23:32:00.999Z
    </Time><Position>
      <LatitudeDegrees>
      47.43027021028216
    </LatitudeDegrees><LongitudeDegrees>
      -122.29013107326821
    </LongitudeDegrees>
    </Position><AltitudeMeters>
      116.18435222189873
    </AltitudeMeters><SensorState>
      Present
    </SensorState><Extensions>
      <TPX xmlns="http://www.garmin.com/xmlschemas/ActivityExtension/v2">
      <nax:Nax>
      <nax:AscentInMeters>
      1.2844506248366088
    </nax:AscentInMeters>
    </nax:Nax>
    </TPX>
    </Extensions>
    </Trackpoint>
<Trackpoint>
      <Time>
      2022-11-16T23:32:02.228Z
    </Time><SensorState>
      Present
    </SensorState><Extensions>
      <TPX xmlns="http://www.garmin.com/xmlschemas/ActivityExtension/v2">
      <ns3:Speed>
      2.3232479117487337
    </ns3:Speed><nax:Nax>
      <nax:Pace>
      7.173864907994898
    </nax:Pace>
    </nax:Nax>
    </TPX>
    </Extensions>
    </Trackpoint>
<Trackpoint>
      <Time>
      2022-11-16T23:32:02.229Z
    </Time><DistanceMeters>
      6.430028234608471
    </DistanceMeters><Cadence>
      166.5697431564331
    </Cadence><SensorState>
      Present
    </SensorState>
    </Trackpoint>
<Trackpoint>
      <Time>
      2022-11-16T23:32:04.783Z
    </Time><SensorState>
      Present
    </SensorState><Extensions>
      <TPX xmlns="http://www.garmin.com/xmlschemas/ActivityExtension/v2">
      <ns3:Speed>
      2.2783959683811457
    </ns3:Speed><nax:Nax>
      <nax:Pace>
      7.31508785038306
    </nax:Pace>
    </nax:Nax>
    </TPX>
    </Extensions>
    </Trackpoint>
<Trackpoint>
      <Time>
      2022-11-16T23:32:04.784Z
    </Time><DistanceMeters>
      5.6119022108614445
    </DistanceMeters><Cadence>
      166.4155626296997
    </Cadence><SensorState>
      Present
    </SensorState>
    </Trackpoint>
<Trackpoint>
      <Time>
      2022-11-16T23:32:05.000Z
    </Time><SensorState>
      Present
    </SensorState><Extensions>
      <TPX xmlns="http://www.garmin.com/xmlschemas/ActivityExtension/v2">
      <nax:Nax>
      <nax:NikeFuel>
      5.979481454769072
    </nax:NikeFuel>
    </nax:Nax>
    </TPX>
    </Extensions>
    </Trackpoint>
<Trackpoint>
      <Time>
      2022-11-16T23:32:05.999Z
    </Time><Position>
      <LatitudeDegrees>
      47.43037735426753
    </LatitudeDegrees><LongitudeDegrees>
      -122.2901341510673
    </LongitudeDegrees>
    </Position><AltitudeMeters>
      117.11487489379942
    </AltitudeMeters><SensorState>
      Present
    </SensorState>
    </Trackpoint>
<Trackpoint>
      <Time>
      2022-11-16T23:32:07.262Z
    </Time><HeartRateBpm>
      <Value>
      152
    </Value>
    </HeartRateBpm><SensorState>
      Present
    </SensorState>
    </Trackpoint>
<Trackpoint>
      <Time>
      2022-11-16T23:32:07.341Z
    </Time><SensorState>
      Present
    </SensorState><Extensions>
      <TPX xmlns="http://www.garmin.com/xmlschemas/ActivityExtension/v2">
      <ns3:Speed>
      2.268034779560941
    </ns3:Speed><nax:Nax>
      <nax:Pace>
      7.3485057711033415
    </nax:Pace>
    </nax:Nax>
    </TPX>
    </Extensions>
    </Trackpoint>
<Trackpoint>
      <Time>
      2022-11-16T23:32:07.342Z
    </Time><DistanceMeters>
      5.575137719511986
    </DistanceMeters><Cadence>
      165.7544231414795
    </Cadence><SensorState>
      Present
    </SensorState>
    </Trackpoint>
<Trackpoint>
      <Time>
      2022-11-16T23:32:09.895Z
    </Time><SensorState>
      Present
    </SensorState><Extensions>
      <TPX xmlns="http://www.garmin.com/xmlschemas/ActivityExtension/v2">
      <ns3:Speed>
      2.262979244436306
    </ns3:Speed><nax:Nax>
      <nax:Pace>
      7.364922461239026
    </nax:Pace>
    </nax:Nax>
    </TPX>
    </Extensions>
    </Trackpoint>
<Trackpoint>
      <Time>
      2022-11-16T23:32:09.896Z
    </Time><DistanceMeters>
      6.092887343838811
    </DistanceMeters><Cadence>
      165.25918006896973
    </Cadence><SensorState>
      Present
    </SensorState>
    </Trackpoint>
<Trackpoint>
      <Time>
      2022-11-16T23:32:10.999Z
    </Time><Position>
      <LatitudeDegrees>
      47.430471509480284
    </LatitudeDegrees><LongitudeDegrees>
      -122.29018967866614
    </LongitudeDegrees>
    </Position><AltitudeMeters>
      117.46887949947268
    </AltitudeMeters><SensorState>
      Present
    </SensorState>
    </Trackpoint>
<Trackpoint>
      <Time>
      2022-11-16T23:32:12.451Z
    </Time><SensorState>
      Present
    </SensorState><Extensions>
      <TPX xmlns="http://www.garmin.com/xmlschemas/ActivityExtension/v2">
      <ns3:Speed>
      2.2600851804035806
    </ns3:Speed><nax:Nax>
      <nax:Pace>
      7.374353325785057
    </nax:Pace>
    </nax:Nax>
    </TPX>
    </Extensions>
    </Trackpoint>
<Trackpoint>
      <Time>
      2022-11-16T23:32:12.452Z
    </Time><DistanceMeters>
      5.046982070431113
    </DistanceMeters><Cadence>
      164.84179973602295
    </Cadence><SensorState>
      Present
    </SensorState>
    </Trackpoint>
<Trackpoint>
      <Time>
      2022-11-16T23:32:15.000Z
    </Time><SensorState>
      Present
    </SensorState><Extensions>
      <TPX xmlns="http://www.garmin.com/xmlschemas/ActivityExtension/v2">
      <nax:Nax>
      <nax:NikeFuel>
      6.09493556339183
    </nax:NikeFuel>
    </nax:Nax>
    </TPX>
    </Extensions>
    </Trackpoint>
<Trackpoint>
      <Time>
      2022-11-16T23:32:15.006Z
    </Time><SensorState>
      Present
    </SensorState><Extensions>
      <TPX xmlns="http://www.garmin.com/xmlschemas/ActivityExtension/v2">
      <ns3:Speed>
      2.317940893563509
    </ns3:Speed><nax:Nax>
      <nax:Pace>
      7.1902897580119065
    </nax:Pace>
    </nax:Nax>
    </TPX>
    </Extensions>
    </Trackpoint>
<Trackpoint>
      <Time>
      2022-11-16T23:32:15.007Z
    </Time><DistanceMeters>
      5.605104493908584
    </DistanceMeters><Cadence>
      164.14798736572266
    </Cadence><SensorState>
      Present
    </SensorState>
    </Trackpoint>
<Trackpoint>
      <Time>
      2022-11-16T23:32:15.262Z
    </Time><HeartRateBpm>
      <Value>
      159
    </Value>
    </HeartRateBpm><SensorState>
      Present
    </SensorState>
    </Trackpoint>
<Trackpoint>
      <Time>
      2022-11-16T23:32:15.999Z
    </Time><Position>
      <LatitudeDegrees>
      47.43056477047561
    </LatitudeDegrees><LongitudeDegrees>
      -122.2902371955394
    </LongitudeDegrees>
    </Position><AltitudeMeters>
      116.86453012097627
    </AltitudeMeters><SensorState>
      Present
    </SensorState>
    </Trackpoint>
<Trackpoint>
      <Time>
      2022-11-16T23:32:16.262Z
    </Time><HeartRateBpm>
      <Value>
      158
    </Value>
    </HeartRateBpm><SensorState>
      Present
    </SensorState>
    </Trackpoint>
<Trackpoint>
      <Time>
      2022-11-16T23:32:17.563Z
    </Time><SensorState>
      Present
    </SensorState><Extensions>
      <TPX xmlns="http://www.garmin.com/xmlschemas/ActivityExtension/v2">
      <ns3:Speed>
      2.3043653648761375
    </ns3:Speed><nax:Nax>
      <nax:Pace>
      7.232649353572678
    </nax:Pace>
    </nax:Nax>
    </TPX>
    </Extensions>
    </Trackpoint>
<Trackpoint>
      <Time>
      2022-11-16T23:32:21.999Z
    </Time><Position>
      <LatitudeDegrees>
      47.430663761711116
    </LatitudeDegrees><LongitudeDegrees>
      -122.29022333818415
    </LongitudeDegrees>
    </Position><AltitudeMeters>
      116.51902322284877
    </AltitudeMeters><SensorState>
      Present
    </SensorState>
    </Trackpoint>
    </Track><Notes>
      Mean Pace: 8.780885613373773 MKM
    </Notes>
    </Lap><Extensions>
      <nax:NAX>
      <nax:ActivityType>
      Running
    </nax:ActivityType><nax:Tags>
      <nax:Tag>
      <nax:Key>
      com.nike.running.goaltype
    </nax:Key><nax:Value>
      freeRun
    </nax:Value><nax:Key>
      com.nike.running.originalactivityid
    </nax:Key><nax:Value>
      0BA3D26D-B204-4388-86B3-E1953612BFDC
    </nax:Value><nax:Key>
      com.nike.running.recordingappversion
    </nax:Key><nax:Value>
      7.17.0
    </nax:Value><nax:Key>
      com.nike.running.recordingsource
    </nax:Key><nax:Value>
      watch
    </nax:Value><nax:Key>
      com.nike.running.syncappversion
    </nax:Key><nax:Value>
      7.17.0
    </nax:Value><nax:Key>
      com.nike.running.syncsource
    </nax:Key><nax:Value>
      watch
    </nax:Value><nax:Key>
      location
    </nax:Key><nax:Value>
      outdoors
    </nax:Value>
    </nax:Tag>
    </nax:Tags>
    </nax:NAX>
    </Extensions>
    </Activity>
    </Activities>
    </TrainingCenterDatabase>