<?xml version="1.0" encoding="utf-8"?>
<TrainingCenterDatabase xmlns="http://www.garmin.com/xmlschemas/TrainingCenterDatabase/v2" xmlns:ns3="http://www.garmin.com/xmlschemas/ActivityExtension/v2" xsi:schemaLocation="http://www.garmin.com/xmlschemas/TrainingCenterDatabase/v2 http://www.garmin.com/xmlschemas/TrainingCenterDatabasev2.xsd" xmlns:nax="https://www.nike.com/xmlschemas/NikeActivityExtension/v1" xmlns:xsi="http://www.w3.org/2001/XMLSchema-instance" xmlns:ns5="http://www.garmin.com/xmlschemas/ActivityGoals/v1" xmlns:ns2="http://www.garmin.com/xmlschemas/UserProfile/v2">
      <Activities>
      <Activity Sport="Running">
      <Id>
      2025-12-11T06:18:13.485Z
    </Id><Lap StartTime="2025-12-11T06:18:13.485Z">
      <TotalTimeSeconds>
      1650
    </TotalTimeSeconds><DistanceMeters>
      4345.228800000001
    </DistanceMeters><MaximumSpeed>
      2.6334720000000003
    </MaximumSpeed><Calories>
      0
    </Calories><Intensity>
      Active
    </Intensity><TriggerMethod>
      Manual
    </TriggerMethod><Track>
      <Trackpoint>
      <Time>
      2025-12-11T06:18:13.485Z
    </Time><DistanceMeters>
      4345.228800000001
    </DistanceMeters><SensorState>
      Present
    </SensorState><Extensions>
      <TPX xmlns="http://www.garmin.com/xmlschemas/ActivityExtension/v2">
      <ns3:Speed>
      2.6334720000000003
    </ns3:Speed><nax:Nax>
      <nax:Pace>
      6.328780661676549
    </nax:Pace><nax:NikeFuel>
      2.4357388853333335
    </nax:NikeFuel>
    </nax:Nax>
    </TPX>
    </Extensions>
    </Trackpoint>
    </Track><Notes>
      Mean Pace: 6.328780661676548 MKM
    </Notes>
    </Lap><Extensions>
      <nax:NAX>
      <nax:ActivityType>
      Running
    </nax:ActivityType><nax:Tags>
      <nax:Tag>
      <nax:Key>
      com.nike.name
    </nax:Key><nax:Value>
      Treadmill
    </nax:Value><nax:Key>
      com.nike.running.originalactivityid
    </nax:Key><nax:Value>
      D816110D-E53B-46A2-A995-8352B0998AAD
    </nax:Value><nax:Key>
      com.nike.running.runtype
    </nax:Key><nax:Value>
      manual
    </nax:Value><nax:Key>
      evaluation.run.disqualified
    </nax:Key><nax:Value>
      true
    </nax:Value><nax:Key>
      evaluation.run.version
    </nax:Key><nax:Value>
      2.0.0
    </nax:Value><nax:Key>
      location
    </nax:Key><nax:Value>
      indoors
    </nax:Value>
    </nax:Tag>
    </nax:Tags>
    </nax:NAX>
    </Extensions>
    </Activity>
    </Activities>
    </TrainingCenterDatabase>